start=new Date('2023-03-18T00:00:00.000Z').valueOf();
sats=[{"INCLINATION":"70.0018","NORAD_CAT_ID":"55292","TLE_LINE2":"2 55292  70.0018 268.6785 0003056 279.7388  80.3462 15.69931231  9766","MEAN_ELEMENT_THEORY":"SGP4","MEAN_MOTION_DDOT":"0.0000000000000","MEAN_MOTION_DOT":"0.00008845","REF_FRAME":"TEME","APOAPSIS":"361.155","MEAN_ANOMALY":"80.3462","RCS_SIZE":"LARGE","FILE":"3863278","OBJECT_TYPE":"PAYLOAD","GP_ID":"228326545","LAUNCH_DATE":"2023-01-19","MEAN_MOTION":"15.69931231","CLASSIFICATION_TYPE":"U","TIME_SYSTEM":"UTC","ECCENTRICITY":"0.00030560","PERIOD":"91.724","CENTER_NAME":"EARTH","BSTAR":"0.00007523000000","ELEMENT_SET_NO":"999","SEMIMAJOR_AXIS":"6737.231","EPOCH":"2023-03-17T12:33:12.168864","RA_OF_ASC_NODE":"268.6785","ARG_OF_PERICENTER":"279.7388","PERIAPSIS":"357.037","TLE_LINE1":"1 55292U 23010Z   23076.52305751  .00008845  00000-0  75230-4 0  9991","SITE":"AFWTR","OBJECT_ID":"2023-010Z","REV_AT_EPOCH":"976","DECAY_DATE":null,"COUNTRY_CODE":"US","EPHEMERIS_TYPE":"0","OBJECT_NAME":"STARLINK-5325"},{"DECAY_DATE":null,"EPHEMERIS_TYPE":"0","COUNTRY_CODE":"US","OBJECT_NAME":"STARLINK-5287","TLE_LINE1":"1 55293U 23010AA  23076.52326580 -.00000817  00000-0 -50242-5 0  9995","SITE":"AFWTR","REV_AT_EPOCH":"945","OBJECT_ID":"2023-010AA","ARG_OF_PERICENTER":"268.0171","RA_OF_ASC_NODE":"268.6795","PERIAPSIS":"356.586","ELEMENT_SET_NO":"999","SEMIMAJOR_AXIS":"6737.250","EPOCH":"2023-03-17T12:33:30.165120","LAUNCH_DATE":"2023-01-19","GP_ID":"228332530","MEAN_MOTION":"15.69924484","CLASSIFICATION_TYPE":"U","TIME_SYSTEM":"UTC","CENTER_NAME":"EARTH","PERIOD":"91.724","ECCENTRICITY":"0.00037540","BSTAR":"-0.00000502420000","FILE":"3863473","OBJECT_TYPE":"PAYLOAD","APOAPSIS":"361.644","MEAN_ANOMALY":"92.0594","RCS_SIZE":"LARGE","INCLINATION":"70.0003","TLE_LINE2":"2 55293  70.0003 268.6795 0003754 268.0171  92.0594 15.69924484  9452","NORAD_CAT_ID":"55293","MEAN_ELEMENT_THEORY":"SGP4","MEAN_MOTION_DDOT":"0.0000000000000","REF_FRAME":"TEME","MEAN_MOTION_DOT":"-0.00000817"},{"SITE":"AFWTR","TLE_LINE1":"1 55294U 23010AB  23076.91667824 -.01031798  00000-0 -28303-1 0  9990","OBJECT_ID":"2023-010AB","REV_AT_EPOCH":"130","OBJECT_NAME":"STARLINK-5286","COUNTRY_CODE":"US","DECAY_DATE":null,"EPHEMERIS_TYPE":"0","SEMIMAJOR_AXIS":"6824.017","ELEMENT_SET_NO":"999","EPOCH":"2023-03-17T22:00:00.999936","RA_OF_ASC_NODE":"268.5445","ARG_OF_PERICENTER":"273.5402","PERIAPSIS":"443.541","FILE":"3863544","OBJECT_TYPE":"PAYLOAD","CLASSIFICATION_TYPE":"U","MEAN_MOTION":"15.40077578","TIME_SYSTEM":"UTC","GP_ID":"228358096","LAUNCH_DATE":"2023-01-19","BSTAR":"-0.02830300000000","PERIOD":"93.502","ECCENTRICITY":"0.00034310","CENTER_NAME":"EARTH","TLE_LINE2":"2 55294  70.0001 268.5445 0003431 273.5402  27.5894 15.40077578  1306","NORAD_CAT_ID":"55294","INCLINATION":"70.0001","MEAN_MOTION_DOT":"-0.01031798","REF_FRAME":"TEME","MEAN_ELEMENT_THEORY":"SGP4","MEAN_MOTION_DDOT":"0.0000000000000","MEAN_ANOMALY":"27.5894","APOAPSIS":"448.223","RCS_SIZE":"LARGE"},{"APOAPSIS":"458.743","MEAN_ANOMALY":"297.0696","RCS_SIZE":"LARGE","INCLINATION":"69.9994","TLE_LINE2":"2 55295  69.9994 268.6482 0003256 273.6051 297.0696 15.36484343  1304","NORAD_CAT_ID":"55295","MEAN_ELEMENT_THEORY":"SGP4","MEAN_MOTION_DDOT":"0.0000000000000","REF_FRAME":"TEME","MEAN_MOTION_DOT":"-0.01027985","LAUNCH_DATE":"2023-01-19","GP_ID":"228359347","MEAN_MOTION":"15.36484343","CLASSIFICATION_TYPE":"U","TIME_SYSTEM":"UTC","CENTER_NAME":"EARTH","PERIOD":"93.720","ECCENTRICITY":"0.00032560","BSTAR":"-0.03124500000000","FILE":"3863544","OBJECT_TYPE":"PAYLOAD","ARG_OF_PERICENTER":"273.6051","RA_OF_ASC_NODE":"268.6482","PERIAPSIS":"454.292","ELEMENT_SET_NO":"999","SEMIMAJOR_AXIS":"6834.652","EPOCH":"2023-03-17T22:00:00.999936","COUNTRY_CODE":"US","DECAY_DATE":null,"EPHEMERIS_TYPE":"0","OBJECT_NAME":"STARLINK-5293","TLE_LINE1":"1 55295U 23010AC  23076.91667824 -.01027985  00000-0 -31245-1 0  9993","SITE":"AFWTR","REV_AT_EPOCH":"130","OBJECT_ID":"2023-010AC"},{"DECAY_DATE":null,"EPHEMERIS_TYPE":"0","COUNTRY_CODE":"US","OBJECT_NAME":"STARLINK-5285","TLE_LINE1":"1 55296U 23010AD  23076.71378266  .00002412  00000-0  21821-4 0  9998","SITE":"AFWTR","OBJECT_ID":"2023-010AD","REV_AT_EPOCH":"1067","RA_OF_ASC_NODE":"268.1388","ARG_OF_PERICENTER":"273.2717","PERIAPSIS":"356.916","ELEMENT_SET_NO":"999","SEMIMAJOR_AXIS":"6737.234","EPOCH":"2023-03-17T17:07:50.821824","GP_ID":"228359597","LAUNCH_DATE":"2023-01-19","CLASSIFICATION_TYPE":"U","MEAN_MOTION":"15.69929958","TIME_SYSTEM":"UTC","ECCENTRICITY":"0.00032410","PERIOD":"91.724","CENTER_NAME":"EARTH","BSTAR":"0.00002182100000","FILE":"3863544","OBJECT_TYPE":"PAYLOAD","APOAPSIS":"361.283","MEAN_ANOMALY":"86.8108","RCS_SIZE":"LARGE","INCLINATION":"69.9997","NORAD_CAT_ID":"55296","TLE_LINE2":"2 55296  69.9997 268.1388 0003241 273.2717  86.8108 15.69929958 10671","MEAN_MOTION_DDOT":"0.0000000000000","MEAN_ELEMENT_THEORY":"SGP4","MEAN_MOTION_DOT":"0.00002412","REF_FRAME":"TEME"},{"EPOCH":"2023-03-17T17:08:18.087072","ELEMENT_SET_NO":"999","SEMIMAJOR_AXIS":"6737.234","PERIAPSIS":"356.894","ARG_OF_PERICENTER":"269.3978","RA_OF_ASC_NODE":"268.1404","REV_AT_EPOCH":"979","OBJECT_ID":"2023-010AE","TLE_LINE1":"1 55297U 23010AE  23076.71409823  .00005611  00000-0  48389-4 0  9995","SITE":"AFWTR","DECAY_DATE":null,"COUNTRY_CODE":"US","EPHEMERIS_TYPE":"0","OBJECT_NAME":"STARLINK-5284","MEAN_MOTION_DDOT":"0.0000000000000","MEAN_ELEMENT_THEORY":"SGP4","REF_FRAME":"TEME","MEAN_MOTION_DOT":"0.00005611","INCLINATION":"69.9997","NORAD_CAT_ID":"55297","TLE_LINE2":"2 55297  69.9997 268.1404 0003273 269.3978  90.6842 15.69930128  9791","RCS_SIZE":"LARGE","APOAPSIS":"361.304","MEAN_ANOMALY":"90.6842","OBJECT_TYPE":"PAYLOAD","FILE":"3863544","CENTER_NAME":"EARTH","ECCENTRICITY":"0.00032730","PERIOD":"91.724","BSTAR":"0.00004838900000","GP_ID":"228357846","LAUNCH_DATE":"2023-01-19","CLASSIFICATION_TYPE":"U","MEAN_MOTION":"15.69930128","TIME_SYSTEM":"UTC"},{"PERIAPSIS":"356.481","RA_OF_ASC_NODE":"268.6759","ARG_OF_PERICENTER":"267.1866","EPOCH":"2023-03-17T12:32:27.942432","ELEMENT_SET_NO":"999","SEMIMAJOR_AXIS":"6737.336","DECAY_DATE":null,"EPHEMERIS_TYPE":"0","COUNTRY_CODE":"US","OBJECT_NAME":"STARLINK-5272","OBJECT_ID":"2023-010AF","REV_AT_EPOCH":"1064","TLE_LINE1":"1 55298U 23010AF  23076.52254563  .00010810  00000-0  91658-4 0  9998","SITE":"AFWTR","RCS_SIZE":"LARGE","APOAPSIS":"361.920","MEAN_ANOMALY":"92.8868","MEAN_ELEMENT_THEORY":"SGP4","MEAN_MOTION_DDOT":"0.0000000000000","MEAN_MOTION_DOT":"0.00010810","REF_FRAME":"TEME","INCLINATION":"69.9988","NORAD_CAT_ID":"55298","TLE_LINE2":"2 55298  69.9988 268.6759 0004037 267.1866  92.8868 15.69894589 10649","ECCENTRICITY":"0.00040370","PERIOD":"91.726","CENTER_NAME":"EARTH","BSTAR":"0.00009165800000","LAUNCH_DATE":"2023-01-19","GP_ID":"228327548","MEAN_MOTION":"15.69894589","CLASSIFICATION_TYPE":"U","TIME_SYSTEM":"UTC","OBJECT_TYPE":"PAYLOAD","FILE":"3863278"},{"MEAN_ANOMALY":"75.3577","APOAPSIS":"361.444","RCS_SIZE":"LARGE","TLE_LINE2":"2 55299  69.9985 268.6780 0003462 284.7235  75.3577 15.69925582 10648","NORAD_CAT_ID":"55299","INCLINATION":"69.9985","MEAN_MOTION_DOT":"0.00000308","REF_FRAME":"TEME","MEAN_ELEMENT_THEORY":"SGP4","MEAN_MOTION_DDOT":"0.0000000000000","MEAN_MOTION":"15.69925582","CLASSIFICATION_TYPE":"U","TIME_SYSTEM":"UTC","LAUNCH_DATE":"2023-01-19","GP_ID":"228326296","BSTAR":"0.00000433460000","PERIOD":"91.724","ECCENTRICITY":"0.00034620","CENTER_NAME":"EARTH","FILE":"3863278","OBJECT_TYPE":"PAYLOAD","RA_OF_ASC_NODE":"268.6780","ARG_OF_PERICENTER":"284.7235","PERIAPSIS":"356.779","SEMIMAJOR_AXIS":"6737.247","ELEMENT_SET_NO":"999","EPOCH":"2023-03-17T12:32:53.925504","OBJECT_NAME":"STARLINK-5270","COUNTRY_CODE":"US","DECAY_DATE":null,"EPHEMERIS_TYPE":"0","SITE":"AFWTR","TLE_LINE1":"1 55299U 23010AG  23076.52284636  .00000308  00000-0  43346-5 0  9996","OBJECT_ID":"2023-010AG","REV_AT_EPOCH":"1064"},{"OBJECT_NAME":"STARLINK-5308","DECAY_DATE":null,"COUNTRY_CODE":"US","EPHEMERIS_TYPE":"0","SITE":"AFWTR","TLE_LINE1":"1 55300U 23010AH  23076.26755739  .00004609  00000-0  40079-4 0  9994","OBJECT_ID":"2023-010AH","REV_AT_EPOCH":"941","RA_OF_ASC_NODE":"269.3931","ARG_OF_PERICENTER":"275.2571","PERIAPSIS":"356.536","SEMIMAJOR_AXIS":"6737.260","ELEMENT_SET_NO":"999","EPOCH":"2023-03-17T06:25:16.958496","CLASSIFICATION_TYPE":"U","TIME_SYSTEM":"UTC","MEAN_MOTION":"15.69921087","GP_ID":"228333107","LAUNCH_DATE":"2023-01-19","BSTAR":"0.00004007900000","PERIOD":"91.724","ECCENTRICITY":"0.00038420","CENTER_NAME":"EARTH","FILE":"3863504","OBJECT_TYPE":"PAYLOAD","MEAN_ANOMALY":"84.8186","APOAPSIS":"361.713","RCS_SIZE":"LARGE","TLE_LINE2":"2 55300  69.9985 269.3931 0003842 275.2571  84.8186 15.69921087  9417","NORAD_CAT_ID":"55300","INCLINATION":"69.9985","MEAN_MOTION_DOT":"0.00004609","REF_FRAME":"TEME","MEAN_MOTION_DDOT":"0.0000000000000","MEAN_ELEMENT_THEORY":"SGP4"},{"APOAPSIS":"361.255","MEAN_ANOMALY":"87.5245","RCS_SIZE":"LARGE","INCLINATION":"70.0015","NORAD_CAT_ID":"55302","TLE_LINE2":"2 55302  70.0015 268.6756 0003189 272.5586  87.5245 15.69927610  9451","MEAN_ELEMENT_THEORY":"SGP4","MEAN_MOTION_DDOT":"0.0000000000000","MEAN_MOTION_DOT":"0.00005915","REF_FRAME":"TEME","GP_ID":"228296334","LAUNCH_DATE":"2023-01-19","CLASSIFICATION_TYPE":"U","TIME_SYSTEM":"UTC","MEAN_MOTION":"15.69927610","ECCENTRICITY":"0.00031890","PERIOD":"91.724","CENTER_NAME":"EARTH","BSTAR":"0.00005092300000","FILE":"3863054","OBJECT_TYPE":"PAYLOAD","RA_OF_ASC_NODE":"268.6756","ARG_OF_PERICENTER":"272.5586","PERIAPSIS":"356.958","ELEMENT_SET_NO":"999","SEMIMAJOR_AXIS":"6737.241","EPOCH":"2023-03-17T12:32:08.441088","DECAY_DATE":null,"EPHEMERIS_TYPE":"0","COUNTRY_CODE":"US","OBJECT_NAME":"STARLINK-5321","TLE_LINE1":"1 55302U 23010AK  23076.52231992  .00005915  00000-0  50923-4 0  9995","SITE":"AFWTR","OBJECT_ID":"2023-010AK","REV_AT_EPOCH":"945"}];
